*******************************************************************************
Ephemeris / WWW_USER Mon Mar 24 11:42:39 2025 Pasadena, USA      / Horizons    
*******************************************************************************
Target body name: (2018 RP1)                      {source: JPL#4}
Center body name: Earth (399)                     {source: DE441}
Center-site name: Gemini South Obs., Cerro Pachon
*******************************************************************************
Start time      : A.D. 2018-Aug-16 22:27:00.0000 UT      
Stop  time      : A.D. 2018-Aug-17 11:06:00.0000 UT      
Step-size       : 1 minutes
*******************************************************************************
Target pole/equ : undefined
Target radii    : undefined                                                    
Center geodetic : 289.2634, -30.2406227, 2.71233  {E-lon(deg),Lat(deg),Alt(km)}
Center cylindric: 289.2634,5517.21435,-3194.81213 {E-lon(deg),Dxy(km),Dz(km)}
Center pole/equ : ITRF93                          {East-longitude positive}
Center radii    : 6378.137, 6378.137, 6356.752 km {Equator_a, b, pole_c}       
Target primary  : Sun
Vis. interferer : MOON (R_eq= 1737.400) km        {source: DE441}
Rel. light bend : Sun                             {source: DE441}
Rel. lght bnd GM: 1.3271E+11 km^3/s^2                                          
Small-body perts: Yes                             {source: SB441-N16}
Atmos refraction: NO (AIRLESS)
RA format       : HMS
Time format     : CAL 
Calendar mode   : Mixed Julian/Gregorian
RTS-only print  : NO       
EOP file        : eop.250321.p250617                                           
EOP coverage    : DATA-BASED 1962-JAN-20 TO 2025-MAR-21. PREDICTS-> 2025-JUN-16
Units conversion: 1 au= 149597870.700 km, c= 299792.458 km/s, 1 day= 86400.0 s 
Table cut-offs 1: Elevation (-90.0deg=NO ),Airmass (>38.000=NO), Daylight (YES)
Table cut-offs 2: Solar elongation (  0.0,180.0=NO ),Local Hour Angle( 0.0=NO )
Table cut-offs 3: RA/DEC angular rate (     0.0=NO )                           
*******************************************************************************
Initial IAU76/J2000 heliocentric ecliptic osculating elements (au, days, deg.):
  EPOCH=  2458376.5 ! 2018-Sep-15.00 (TDB)         Residual RMS= .12525        
   EC= .3382936082205208   QR= .9576766169446216   TP= 2458412.3293739939      
   OM= 161.903422202901    W=  234.5704247756858   IN= 9.466091569921099       
  Equivalent ICRF heliocentric cartesian coordinates (au, au/d):
   X= 1.017940821946709E+00  Y=-7.278189102440286E-02  Z=-7.249995171787897E-02
  VX=-1.754817228708964E-03 VY= 1.862872143473751E-02 VZ= 4.887370356508847E-03
Asteroid physical parameters (km, seconds, rotational period in hours):        
   GM= n.a.                RAD= n.a.               ROTPER= n.a.                
   H= 24.3                 G= .150                 B-V= n.a.                   
                           ALBEDO= n.a.            STYP= n.a.                  
*******************************************************************************
 Date__(UT)__HR:MN     R.A._________(ICRF)_________DEC
******************************************************
$$SOE
 2018-Aug-17 00:30  m  22 59 25.972804 +13 21 34.24798
 2018-Aug-17 00:31  m  22 59 26.122514 +13 21 34.09521
 2018-Aug-17 00:32  m  22 59 26.272167 +13 21 33.94238
 2018-Aug-17 00:33  m  22 59 26.421762 +13 21 33.78949
 2018-Aug-17 00:34  m  22 59 26.571300 +13 21 33.63652
 2018-Aug-17 00:35  m  22 59 26.720781 +13 21 33.48348
 2018-Aug-17 00:36  m  22 59 26.870205 +13 21 33.33038
 2018-Aug-17 00:37  m  22 59 27.019571 +13 21 33.17720
 2018-Aug-17 00:38  m  22 59 27.168881 +13 21 33.02395
 2018-Aug-17 00:39  m  22 59 27.318133 +13 21 32.87063
 2018-Aug-17 00:40  m  22 59 27.467329 +13 21 32.71723
 2018-Aug-17 00:41  m  22 59 27.616467 +13 21 32.56376
 2018-Aug-17 00:42  m  22 59 27.765549 +13 21 32.41022
 2018-Aug-17 00:43  m  22 59 27.914573 +13 21 32.25659
 2018-Aug-17 00:44  m  22 59 28.063541 +13 21 32.10289
 2018-Aug-17 00:45  m  22 59 28.212452 +13 21 31.94911
 2018-Aug-17 00:46  m  22 59 28.361307 +13 21 31.79525
 2018-Aug-17 00:47  m  22 59 28.510104 +13 21 31.64131
 2018-Aug-17 00:48  m  22 59 28.658845 +13 21 31.48729
 2018-Aug-17 00:49  m  22 59 28.807529 +13 21 31.33318
 2018-Aug-17 00:50  m  22 59 28.956157 +13 21 31.17899
 2018-Aug-17 00:51  m  22 59 29.104728 +13 21 31.02472
 2018-Aug-17 00:52  m  22 59 29.253243 +13 21 30.87036
 2018-Aug-17 00:53  m  22 59 29.401701 +13 21 30.71592
 2018-Aug-17 00:54  m  22 59 29.550104 +13 21 30.56139
 2018-Aug-17 00:55  m  22 59 29.698449 +13 21 30.40677
 2018-Aug-17 00:56  m  22 59 29.846739 +13 21 30.25206
 2018-Aug-17 00:57  m  22 59 29.994972 +13 21 30.09726
 2018-Aug-17 00:58  m  22 59 30.143150 +13 21 29.94237
 2018-Aug-17 00:59  m  22 59 30.291271 +13 21 29.78739
 2018-Aug-17 01:00  m  22 59 30.439337 +13 21 29.63231
 2018-Aug-17 01:01  m  22 59 30.587346 +13 21 29.47714
 2018-Aug-17 01:02  m  22 59 30.735300 +13 21 29.32188
 2018-Aug-17 01:03  m  22 59 30.883198 +13 21 29.16652
 2018-Aug-17 01:04  m  22 59 31.031040 +13 21 29.01107
 2018-Aug-17 01:05  m  22 59 31.178826 +13 21 28.85551
 2018-Aug-17 01:06  m  22 59 31.326557 +13 21 28.69986
 2018-Aug-17 01:07  m  22 59 31.474233 +13 21 28.54411
 2018-Aug-17 01:08  m  22 59 31.621853 +13 21 28.38826
 2018-Aug-17 01:09  m  22 59 31.769418 +13 21 28.23231
 2018-Aug-17 01:10  m  22 59 31.916927 +13 21 28.07626
 2018-Aug-17 01:11  m  22 59 32.064382 +13 21 27.92010
 2018-Aug-17 01:12  m  22 59 32.211781 +13 21 27.76384
 2018-Aug-17 01:13  m  22 59 32.359125 +13 21 27.60747
 2018-Aug-17 01:14  m  22 59 32.506415 +13 21 27.45100
 2018-Aug-17 01:15  m  22 59 32.653649 +13 21 27.29442
 2018-Aug-17 01:16  m  22 59 32.800829 +13 21 27.13774
 2018-Aug-17 01:17  m  22 59 32.947954 +13 21 26.98094
 2018-Aug-17 01:18  m  22 59 33.095024 +13 21 26.82404
 2018-Aug-17 01:19  m  22 59 33.242040 +13 21 26.66703
 2018-Aug-17 01:20  m  22 59 33.389001 +13 21 26.50990
 2018-Aug-17 01:21  m  22 59 33.535908 +13 21 26.35266
 2018-Aug-17 01:22  m  22 59 33.682761 +13 21 26.19531
 2018-Aug-17 01:23  m  22 59 33.829560 +13 21 26.03785
 2018-Aug-17 01:24  m  22 59 33.976304 +13 21 25.88027
 2018-Aug-17 01:25  m  22 59 34.122995 +13 21 25.72257
 2018-Aug-17 01:26  m  22 59 34.269632 +13 21 25.56476
 2018-Aug-17 01:27  m  22 59 34.416215 +13 21 25.40683
 2018-Aug-17 01:28  m  22 59 34.562744 +13 21 25.24879
 2018-Aug-17 01:29  m  22 59 34.709220 +13 21 25.09062
 2018-Aug-17 01:30  m  22 59 34.855642 +13 21 24.93233
 2018-Aug-17 01:31  m  22 59 35.002011 +13 21 24.77392
 2018-Aug-17 01:32  m  22 59 35.148326 +13 21 24.61539
 2018-Aug-17 01:33  m  22 59 35.294588 +13 21 24.45674
 2018-Aug-17 01:34  m  22 59 35.440798 +13 21 24.29796
 2018-Aug-17 01:35  m  22 59 35.586954 +13 21 24.13906
 2018-Aug-17 01:36  m  22 59 35.733057 +13 21 23.98003
 2018-Aug-17 01:37  m  22 59 35.879108 +13 21 23.82088
 2018-Aug-17 01:38  m  22 59 36.025106 +13 21 23.66159
 2018-Aug-17 01:39  m  22 59 36.171051 +13 21 23.50218
 2018-Aug-17 01:40  m  22 59 36.316944 +13 21 23.34264
 2018-Aug-17 01:41  m  22 59 36.462785 +13 21 23.18298
 2018-Aug-17 01:42  m  22 59 36.608574 +13 21 23.02317
 2018-Aug-17 01:43  m  22 59 36.754310 +13 21 22.86324
 2018-Aug-17 01:44  m  22 59 36.899994 +13 21 22.70318
 2018-Aug-17 01:45  m  22 59 37.045627 +13 21 22.54298
 2018-Aug-17 01:46  m  22 59 37.191208 +13 21 22.38265
 2018-Aug-17 01:47  m  22 59 37.336737 +13 21 22.22218
 2018-Aug-17 01:48  m  22 59 37.482214 +13 21 22.06158
 2018-Aug-17 01:49  m  22 59 37.627641 +13 21 21.90083
 2018-Aug-17 01:50  m  22 59 37.773016 +13 21 21.73996
 2018-Aug-17 01:51  m  22 59 37.918340 +13 21 21.57894
 2018-Aug-17 01:52  m  22 59 38.063612 +13 21 21.41778
 2018-Aug-17 01:53  m  22 59 38.208834 +13 21 21.25648
 2018-Aug-17 01:54  m  22 59 38.354005 +13 21 21.09504
 2018-Aug-17 01:55  m  22 59 38.499126 +13 21 20.93346
 2018-Aug-17 01:56  m  22 59 38.644196 +13 21 20.77174
 2018-Aug-17 01:57  m  22 59 38.789216 +13 21 20.60987
 2018-Aug-17 01:58  m  22 59 38.934185 +13 21 20.44786
 2018-Aug-17 01:59  m  22 59 39.079104 +13 21 20.28570
 2018-Aug-17 02:00  m  22 59 39.223974 +13 21 20.12339
 2018-Aug-17 02:01  m  22 59 39.368793 +13 21 19.96094
 2018-Aug-17 02:02  m  22 59 39.513563 +13 21 19.79834
 2018-Aug-17 02:03  m  22 59 39.658283 +13 21 19.63559
 2018-Aug-17 02:04  m  22 59 39.802954 +13 21 19.47269
 2018-Aug-17 02:05  m  22 59 39.947575 +13 21 19.30964
 2018-Aug-17 02:06  m  22 59 40.092148 +13 21 19.14644
 2018-Aug-17 02:07  m  22 59 40.236671 +13 21 18.98309
 2018-Aug-17 02:08  m  22 59 40.381145 +13 21 18.81958
 2018-Aug-17 02:09  m  22 59 40.525571 +13 21 18.65592
 2018-Aug-17 02:10  m  22 59 40.669948 +13 21 18.49210
 2018-Aug-17 02:11  m  22 59 40.814276 +13 21 18.32813
 2018-Aug-17 02:12  m  22 59 40.958557 +13 21 18.16401
 2018-Aug-17 02:13  m  22 59 41.102789 +13 21 17.99972
 2018-Aug-17 02:14  m  22 59 41.246973 +13 21 17.83528
 2018-Aug-17 02:15  m  22 59 41.391109 +13 21 17.67068
 2018-Aug-17 02:16  m  22 59 41.535198 +13 21 17.50592
 2018-Aug-17 02:17  m  22 59 41.679239 +13 21 17.34099
 2018-Aug-17 02:18  m  22 59 41.823232 +13 21 17.17591
 2018-Aug-17 02:19  m  22 59 41.967179 +13 21 17.01067
 2018-Aug-17 02:20  m  22 59 42.111078 +13 21 16.84526
 2018-Aug-17 02:21  m  22 59 42.254930 +13 21 16.67969
 2018-Aug-17 02:22  m  22 59 42.398736 +13 21 16.51395
 2018-Aug-17 02:23  m  22 59 42.542494 +13 21 16.34805
 2018-Aug-17 02:24  m  22 59 42.686207 +13 21 16.18198
 2018-Aug-17 02:25  m  22 59 42.829873 +13 21 16.01575
 2018-Aug-17 02:26  m  22 59 42.973493 +13 21 15.84934
 2018-Aug-17 02:27  m  22 59 43.117067 +13 21 15.68277
 2018-Aug-17 02:28  m  22 59 43.260595 +13 21 15.51603
 2018-Aug-17 02:29  m  22 59 43.404077 +13 21 15.34912
 2018-Aug-17 02:30  m  22 59 43.547514 +13 21 15.18204
 2018-Aug-17 02:31  m  22 59 43.690906 +13 21 15.01479
 2018-Aug-17 02:32  m  22 59 43.834252 +13 21 14.84737
